[
  {
    "id": 1,
    "name_ja": "北海道",
    "name_en": "Hokkaido",
    "lat": 43.46722222,
    "lng": 142.8277778,
    "cases": 180,
    "deaths": 8
  },
  {
    "id": 2,
    "name_ja": "青森",
    "name_en": "Aomori",
    "lat": 40.78027778,
    "lng": 140.83194440000003,
    "cases": 8,
    "deaths": 0
  },
  {
    "id": 3,
    "name_ja": "岩手",
    "name_en": "Iwate",
    "lat": 39.59138889,
    "lng": 141.3625,
    "cases": 0,
    "deaths": 0
  },
  {
    "id": 4,
    "name_ja": "宮城",
    "name_en": "Miyagi",
    "lat": 38.44555556,
    "lng": 140.9280556,
    "cases": 11,
    "deaths": 0
  },
  {
    "id": 5,
    "name_ja": "秋田",
    "name_en": "Akita",
    "lat": 39.7475,
    "lng": 140.4086111,
    "cases": 7,
    "deaths": 0
  },
  {
    "id": 6,
    "name_ja": "山形",
    "name_en": "Yamagata",
    "lat": 38.44638889,
    "lng": 140.1027778,
    "cases": 3,
    "deaths": 0
  },
  {
    "id": 7,
    "name_ja": "福島",
    "name_en": "Fukushima",
    "lat": 37.37888889,
    "lng": 140.22527780000001,
    "cases": 6,
    "deaths": 0
  },
  {
    "id": 8,
    "name_ja": "茨城",
    "name_en": "Ibaraki",
    "lat": 36.30638889,
    "lng": 140.3186111,
    "cases": 43,
    "deaths": 2
  },
  {
    "id": 9,
    "name_ja": "栃木",
    "name_en": "Tochigi",
    "lat": 36.68916667,
    "lng": 139.81916669999998,
    "cases": 17,
    "deaths": 0
  },
  {
    "id": 10,
    "name_ja": "群馬",
    "name_en": "Gunma",
    "lat": 36.50388889,
    "lng": 138.9852778,
    "cases": 20,
    "deaths": 1
  },
  {
    "id": 11,
    "name_ja": "埼玉",
    "name_en": "Saitama",
    "lat": 35.99666667,
    "lng": 139.34777780000002,
    "cases": 104,
    "deaths": 3
  },
  {
    "id": 12,
    "name_ja": "千葉",
    "name_en": "Chiba",
    "lat": 35.51277778,
    "lng": 140.2038889,
    "cases": 186,
    "deaths": 1
  },
  {
    "id": 13,
    "name_ja": "東京",
    "name_en": "Tokyo",
    "lat": 35.702313700000005,
    "lng": 139.5803228,
    "cases": 587,
    "deaths": 16
  },
  {
    "id": 14,
    "name_ja": "神奈川",
    "name_en": "Kanagawa",
    "lat": 35.41416667,
    "lng": 139.34027780000002,
    "cases": 177,
    "deaths": 6
  },
  {
    "id": 15,
    "name_ja": "新潟",
    "name_en": "Niigata",
    "lat": 37.51888889,
    "lng": 138.91722219999997,
    "cases": 32,
    "deaths": 0
  },
  {
    "id": 16,
    "name_ja": "富山",
    "name_en": "Toyama",
    "lat": 36.63611111,
    "lng": 137.2680556,
    "cases": 8,
    "deaths": 0
  },
  {
    "id": 17,
    "name_ja": "石川",
    "name_en": "Ishikawa",
    "lat": 36.76583333,
    "lng": 136.7713889,
    "cases": 15,
    "deaths": 0
  },
  {
    "id": 18,
    "name_ja": "福井",
    "name_en": "Fukui",
    "lat": 35.84666667,
    "lng": 136.22722219999997,
    "cases": 30,
    "deaths": 1
  },
  {
    "id": 19,
    "name_ja": "山梨",
    "name_en": "Yamanashi",
    "lat": 35.61222222,
    "lng": 138.6116667,
    "cases": 9,
    "deaths": 0
  },
  {
    "id": 20,
    "name_ja": "長野",
    "name_en": "Nagano",
    "lat": 36.13,
    "lng": 138.04388889999998,
    "cases": 9,
    "deaths": 0
  },
  {
    "id": 21,
    "name_ja": "岐阜",
    "name_en": "Gifu",
    "lat": 35.7775,
    "lng": 137.055,
    "cases": 31,
    "deaths": 0
  },
  {
    "id": 22,
    "name_ja": "静岡",
    "name_en": "Shizuoka",
    "lat": 35.01694444,
    "lng": 138.33,
    "cases": 13,
    "deaths": 0
  },
  {
    "id": 23,
    "name_ja": "愛知",
    "name_en": "Aichi",
    "lat": 35.03444444,
    "lng": 137.215,
    "cases": 183,
    "deaths": 19
  },
  {
    "id": 24,
    "name_ja": "三重",
    "name_en": "Mie",
    "lat": 34.51361111,
    "lng": 136.3813889,
    "cases": 12,
    "deaths": 0
  },
  {
    "id": 25,
    "name_ja": "滋賀",
    "name_en": "Shiga",
    "lat": 35.21527778,
    "lng": 136.13805559999997,
    "cases": 7,
    "deaths": 0
  },
  {
    "id": 26,
    "name_ja": "京都",
    "name_en": "Kyoto",
    "lat": 35.25194444,
    "lng": 135.4458333,
    "cases": 76,
    "deaths": 0
  },
  {
    "id": 27,
    "name_ja": "大阪",
    "name_en": "Osaka",
    "lat": 34.62277778,
    "lng": 135.5111111,
    "cases": 278,
    "deaths": 2
  },
  {
    "id": 28,
    "name_ja": "兵庫",
    "name_en": "Hyogo",
    "lat": 35.03694444,
    "lng": 134.8286111,
    "cases": 162,
    "deaths": 11
  },
  {
    "id": 29,
    "name_ja": "奈良",
    "name_en": "Nara",
    "lat": 34.31555556,
    "lng": 135.8713889,
    "cases": 15,
    "deaths": 0
  },
  {
    "id": 30,
    "name_ja": "和歌山",
    "name_en": "Wakayama",
    "lat": 33.90944444,
    "lng": 135.5133333,
    "cases": 21,
    "deaths": 1
  },
  {
    "id": 31,
    "name_ja": "鳥取",
    "name_en": "Tottori",
    "lat": 35.36055556,
    "lng": 133.8516667,
    "cases": 0,
    "deaths": 0
  },
  {
    "id": 32,
    "name_ja": "島根",
    "name_en": "Shimane",
    "lat": 35.07305556,
    "lng": 132.55944440000002,
    "cases": 0,
    "deaths": 0
  },
  {
    "id": 33,
    "name_ja": "岡山",
    "name_en": "Okayama",
    "lat": 34.90083333,
    "lng": 133.8152778,
    "cases": 7,
    "deaths": 0
  },
  {
    "id": 34,
    "name_ja": "広島",
    "name_en": "Hiroshima",
    "lat": 34.60361111,
    "lng": 132.7875,
    "cases": 6,
    "deaths": 0
  },
  {
    "id": 35,
    "name_ja": "山口",
    "name_en": "Yamaguchi",
    "lat": 34.19861111,
    "lng": 131.575,
    "cases": 6,
    "deaths": 0
  },
  {
    "id": 36,
    "name_ja": "徳島",
    "name_en": "Tokushima",
    "lat": 33.91805556,
    "lng": 134.2430556,
    "cases": 3,
    "deaths": 0
  },
  {
    "id": 37,
    "name_ja": "香川",
    "name_en": "Kagawa",
    "lat": 34.24305556,
    "lng": 133.99666670000002,
    "cases": 2,
    "deaths": 0
  },
  {
    "id": 38,
    "name_ja": "愛媛",
    "name_en": "Ehime",
    "lat": 33.62194444,
    "lng": 132.8558333,
    "cases": 11,
    "deaths": 0
  },
  {
    "id": 39,
    "name_ja": "高知",
    "name_en": "Kōchi",
    "lat": 33.42111111,
    "lng": 133.36666670000002,
    "cases": 20,
    "deaths": 0
  },
  {
    "id": 40,
    "name_ja": "福岡",
    "name_en": "Fukuoka",
    "lat": 33.5225,
    "lng": 130.66805559999997,
    "cases": 78,
    "deaths": 0
  },
  {
    "id": 41,
    "name_ja": "佐賀",
    "name_en": "Saga",
    "lat": 33.28527778,
    "lng": 130.11694440000002,
    "cases": 3,
    "deaths": 0
  },
  {
    "id": 42,
    "name_ja": "長崎",
    "name_en": "Nagasaki",
    "lat": 33.2275,
    "lng": 129.61416670000003,
    "cases": 5,
    "deaths": 0
  },
  {
    "id": 43,
    "name_ja": "熊本",
    "name_en": "Kumamoto",
    "lat": 32.615,
    "lng": 130.7563889,
    "cases": 15,
    "deaths": 0
  },
  {
    "id": 44,
    "name_ja": "大分",
    "name_en": "Oita",
    "lat": 33.19916667,
    "lng": 131.43416670000002,
    "cases": 29,
    "deaths": 0
  },
  {
    "id": 45,
    "name_ja": "宮崎",
    "name_en": "Miyazaki",
    "lat": 32.19083333,
    "lng": 131.3005556,
    "cases": 3,
    "deaths": 0
  },
  {
    "id": 46,
    "name_ja": "鹿児島",
    "name_en": "Kagoshima",
    "lat": 31.01277778,
    "lng": 130.4241667,
    "cases": 2,
    "deaths": 0
  },
  {
    "id": 47,
    "name_ja": "沖縄",
    "name_en": "Okinawa",
    "lat": 25.77111111,
    "lng": 126.64,
    "cases": 9,
    "deaths": 0
  }
]